GLOBALSTAR M045         
1 25676U 99019A   24275.46315270 -.00000017  00000+0  67854-3 0  9993
2 25676  51.9987 322.6831 0000705  97.7852 275.8163 12.27045791161875
GLOBALSTAR M019         
1 25677U 99019B   24274.90715191 -.00000158  00000+0 -70572-3 0  9996
2 25677  51.9871  76.3832 0001716 130.4701  25.8977 12.13863095153656
GLOBALSTAR M044         
1 25678U 99019C   24275.53700215  .00000012  00000+0  13295-2 0  9993
2 25678  51.9999 353.6397 0005986 258.6651 203.8297 11.90240761140501
GLOBALSTAR M042         
1 25679U 99019D   24274.89446132 -.00000069  00000+0  21683-3 0  9991
2 25679  52.0014  62.9337 0003703 116.8542  45.8719 12.22068879153629
GLOBALSTAR M025         
1 25770U 99031A   24274.85448852 -.00000085  00000+0 -54558-3 0  9990
2 25770  51.9842  40.0298 0002151  81.7204  87.3561 11.22553753452584
GLOBALSTAR M049         
1 25771U 99031B   24274.85983118  .00000003  00000+0  23619-2 0  9991
2 25771  51.9876  61.7467 0002403 309.2084  50.8498 11.12109680 88577
GLOBALSTAR M047         
1 25772U 99031C   24274.87770870 -.00000047  00000+0  61730-3 0  9999
2 25772  51.9819  83.4510 0016405 174.1909 185.9090 11.31923468441746
GLOBALSTAR M052         
1 25773U 99031D   24274.89148003 -.00000042  00000+0  81140-3 0  9991
2 25773  51.9848 174.0025 0003159  89.9772 351.8998 11.15054365449584
